ORBCOMM FM37            
1 33064U 08031E   24212.14457543  .00002860  00000+0  43133-3 0  9994
2 33064  48.4407  71.6867 0005404  78.6061  68.7564 14.76913707866710
ORBCOMM FM109           
1 40086U 14040A   24211.95891917  .00001786  00000+0  43158-3 0  9991
2 40086  47.0040  96.8194 0002285 276.4955  83.5670 14.56876817534056
ORBCOMM FM107           
1 40087U 14040B   24211.85553465  .00001249  00000+0  31294-3 0  9996
2 40087  47.0056  98.2801 0001611 246.7205 113.3511 14.56872268534114
ORBCOMM FM106           
1 40088U 14040C   24211.75151474  .00001915  00000+0  36742-3 0  9993
2 40088  47.0619 305.9494 0017552   5.7797 354.3293 14.67366837536080
ORBCOMM FM111           
1 40089U 14040D   24212.25585350  .00004145  00000+0  53385-3 0  9994
2 40089  47.0019 194.9266 0032065  93.3349 267.1215 14.82340624542399
ORBCOMM FM104           
1 40090U 14040E   24212.11621233  .00001190  00000+0  30970-3 0  9994
2 40090  47.0054 126.8812 0016684 175.2311 184.8735 14.55339211533784
